[
	{
		"name": "Afghanistan",
		"dial_code": "93",
		"code": "AF",
		"size_of_nn": 8
	},
	{
		"name": "Aland Islands",
		"dial_code": "358",
		"code": "AX",
		"size_of_nn": 10
	},
	{
		"name": "Albania",
		"dial_code": "355",
		"code": "AL",
		"size_of_nn": 9
	},
	{
		"name": "Algeria",
		"dial_code": "213",
		"code": "DZ",
		"size_of_nn": 9
	},
	{
		"name": "AmericanSamoa",
		"dial_code": "1684",
		"code": "AS",
		"size_of_nn": 10
	},
	{
		"name": "Anguilla",
		"dial_code": "1264",
		"code": "AI",
		"size_of_nn": 10
	},
	{
		"name": "Belarus",
		"dial_code": "375",
		"code": "BY",
		"size_of_nn": 9
	},
	{
		"name": "Belgium",
		"dial_code": "32",
		"code": "BE",
		"size_of_nn": 9
	},
	{
		"name": "Brazil",
		"dial_code": "55",
		"code": "BR",
		"size_of_nn": 11
	},
	{
		"name": "Bulgaria",
		"dial_code": "359",
		"code": "BG",
		"size_of_nn": 9
	},
	{
		"name": "Croatia",
		"dial_code": "385",
		"code": "HR",
		"size_of_nn": 9
	},
	{
		"name": "Macedonia",
		"dial_code": "389",
		"code": "MK",
		"size_of_nn": 8
	}
]
